OBJECT_NAME,OBJECT_ID,EPOCH,MEAN_MOTION,ECCENTRICITY,INCLINATION,RA_OF_ASC_NODE,ARG_OF_PERICENTER,MEAN_ANOMALY,EPHEMERIS_TYPE,CLASSIFICATION_TYPE,NORAD_CAT_ID,ELEMENT_SET_NO,REV_AT_EPOCH,BSTAR,MEAN_MOTION_DOT,MEAN_MOTION_DDOT
CUTE-1 (CO-55),2003-031E,2026-05-08T23:29:40.741728,14.24311280,.000847,98.6748,138.0299,303.6695,56.3676,0,U,27844,999,18609,.12374E-3,.242E-5,0
CUBESAT XI-IV (CO-57),2003-031J,2026-05-08T22:44:48.801120,14.23599657,.0008677,98.6780,137.7433,324.4817,35.5783,0,U,27848,999,18579,.11154E-3,.21E-5,0
CUBESAT XI-V,2005-043F,2026-05-08T22:10:59.080224,14.72528648,.0013387,98.2943,283.7343,334.8473,25.2080,0,U,28895,999,9597,.18795E-3,.1142E-4,0
CUTE-1.7+APD II (CO-65),2008-021C,2026-05-09T03:10:09.302304,15.09085784,.00098,97.8267,109.7560,151.1327,209.0445,0,U,32785,999,97930,.24893E-3,.3881E-4,0
CANX-2,2008-021H,2026-05-08T22:34:00.139296,15.05342680,.0010687,97.8632,107.9706,166.9384,193.2120,0,U,32790,999,97890,.23166E-3,.3256E-4,0
SEEDS II (CO-66),2008-021J,2026-05-08T22:43:26.832576,15.31425916,.0005118,97.7533,125.0165,92.4427,267.7399,0,U,32791,999,98128,.57786E-3,.17483E-3,0
SWISSCUBE,2009-051B,2026-05-08T16:34:38.703936,14.62404724,.00065135,98.4059,35.8891,347.8843,12.2200,0,U,35932,999,88338,.17535255E-3,.838E-5,0
BEESAT-1,2009-051C,2026-05-09T00:31:45.984000,14.61655991,.0005332,98.3987,35.9431,4.3488,355.7758,0,U,35933,999,88346,.14983E-3,.696E-5,0
ITUPSAT1,2009-051E,2026-05-08T05:24:05.910624,14.60379872,.0007794,98.4072,34.3677,12.9733,347.1666,0,U,35935,999,88290,.14375E-3,.647E-5,0
TISAT 1,2010-035E,2026-05-09T02:18:15.380640,15.30241790,.0003851,98.0693,72.2323,60.4732,299.6890,0,U,36799,999,86172,.6211E-3,.18114E-3,0
AEROCUBE 4.5A,2012-048K,2026-05-09T05:11:11.790816,15.76955018,.0019779,64.6302,167.1687,216.6446,143.3355,0,U,38767,999,36648,.84241E-3,.141055E-2,0
STRAND-1,2013-009E,2026-05-09T01:37:12.434592,14.37140118,.0008455,98.3918,310.2667,356.5478,3.5649,0,U,39090,999,69144,.94693E-4,.239E-5,0
BRITE-AUSTRIA,2013-009F,2026-05-09T01:31:35.027040,14.36526420,.0010194,98.3988,309.4696,4.1993,355.9277,0,U,39091,999,69143,.63777E-4,.145E-5,0
NEE-01 PEGASO,2013-018B,2026-05-08T20:56:07.305792,14.93469024,.001132,98.1171,271.7412,295.5880,64.4168,0,U,39151,999,70483,.2542439E-3,.2615E-4,0
POPACS 2,2013-055E,2026-05-08T21:51:17.091072,14.90325554,.0419805,80.9920,189.1231,320.1325,36.9726,0,U,39269,999,65736,.25226E-3,.14703E-3,0
POPACS 3,2013-055F,2026-05-08T09:18:08.390304,14.55142260,.05550402,81.0011,272.3074,191.0287,167.8332,0,U,39270,999,63276,.31051768E-3,.12939E-3,0
ZACUBE-1 (TSHEPISOSAT),2013-066B,2026-05-09T03:26:27.438432,15.00886731,.0042427,97.8125,91.2693,24.5721,335.7512,0,U,39417,999,67487,.3358E-3,.4292E-4,0
WNISAT-1,2013-066H,2026-05-09T00:36:46.008000,14.58015045,.0162997,97.7155,280.9727,355.7752,4.2061,0,U,39423,999,66102,.86303E-4,.426E-5,0
TRITON-1,2013-066M,2026-05-09T04:37:58.236960,14.81536367,.0090535,97.8264,39.8887,2.5526,357.6131,0,U,39427,999,66831,.38181E-3,.3159E-4,0
GOMX-1,2013-066Q,2026-05-09T03:58:44.726880,14.69307964,.0128201,97.6510,332.0883,202.2551,157.3062,0,U,39430,999,66418,.21822E-3,.1409E-4,0
CUBEBUG-2 (LO-74),2013-066AA,2026-05-09T03:21:21.019104,14.93475771,.0058628,97.8886,77.9695,155.2950,205.1098,0,U,39440,999,67116,.30301E-3,.3235E-4,0
NEE-02 KRYSAOR,2013-066AB,2026-05-09T02:25:19.144992,14.86475817,.0065714,97.8876,68.6041,196.6639,163.2418,0,U,39441,999,67039,.15085E-3,.1328E-4,0
FUNCUBE-1 (AO-73),2013-066AE,2026-05-08T20:56:44.742912,15.08977950,.0035903,97.8254,99.5196,340.3248,19.6593,0,U,39444,999,67373,.50333483E-3,.8007E-4,0
UWE-3,2013-066AG,2026-05-08T20:12:38.683296,14.96703614,.00511901,97.8687,84.6693,90.6298,270.0789,0,U,39446,999,67169,.27466211E-3,.3158E-4,0
BRITE-CA1 (TORONTO),2014-033L,2026-05-09T02:31:16.745088,14.72623560,.0079549,97.9683,258.7677,42.8510,317.8860,0,U,40020,999,63646,.1084E-3,.672E-5,0
DUCHIFAT-1,2014-033M,2026-05-09T02:33:51.154848,15.57905226,.0005614,98.0510,183.0115,196.6222,163.4848,0,U,40021,999,64965,.93897E-3,.70523E-3,0
NANOSATC-BR1,2014-033Q,2026-05-09T01:12:47.914848,15.30233592,.0002231,98.0758,158.0066,346.5210,13.5969,0,U,40024,999,64799,.50892E-3,.14814E-3,0
QB50P1,2014-033R,2026-05-08T23:50:33.291168,15.17656520,.0008788,98.0989,137.4101,12.5177,347.6271,0,U,40025,999,64708,.37179E-3,.7418E-4,0
QB50P2,2014-033Y,2026-05-08T22:20:18.807936,15.14660545,.0006154,98.0760,123.3861,319.3738,40.7032,0,U,40032,999,64672,.36201E-3,.6625E-4,0
PERSEUS-M2,2014-033AD,2026-05-09T02:54:17.445600,14.95386322,.0013085,97.9940,78.8771,70.7735,289.4900,0,U,40037,999,64494,.89244E-4,.926E-5,0
