CUTE-1 (CO-55)          
1 27844U 03031E   26128.97894377  .00000242  00000+0  12374-3 0  9992
2 27844  98.6748 138.0299 0008470 303.6695  56.3676 14.24311280186095
CUBESAT XI-IV (CO-57)   
1 27848U 03031J   26128.94778705  .00000210  00000+0  11154-3 0  9999
2 27848  98.6780 137.7433 0008677 324.4817  35.5783 14.23599657185796
CUBESAT XI-V            
1 28895U 05043F   26128.92429491  .00001142  00000+0  18795-3 0  9993
2 28895  98.2943 283.7343 0013387 334.8473  25.2080 14.72528648 95977
CUTE-1.7+APD II (CO-65) 
1 32785U 08021C   26129.13205211  .00003881  00000+0  24893-3 0  9999
2 32785  97.8267 109.7560 0009800 151.1327 209.0445 15.09085784979300
CANX-2                  
1 32790U 08021H   26128.94027939  .00003256  00000+0  23166-3 0  9990
2 32790  97.8632 107.9706 0010687 166.9384 193.2120 15.05342680978902
SEEDS II (CO-66)        
1 32791U 08021J   26128.94683834  .00017483  00000+0  57786-3 0  9995
2 32791  97.7533 125.0165 0005118  92.4427 267.7399 15.31425916981289
SWISSCUBE               
1 35932U 09051B   26128.69072574  .00000838  00000+0  17535-3 0  9998
2 35932  98.4059  35.8891 0006513 347.8843  12.2200 14.62404724883386
BEESAT-1                
1 35933U 09051C   26129.02206000  .00000696  00000+0  14983-3 0  9996
2 35933  98.3987  35.9431 0005332   4.3488 355.7758 14.61655991883460
ITUPSAT1                
1 35935U 09051E   26128.22506841  .00000647  00000+0  14375-3 0  9996
2 35935  98.4072  34.3677 0007794  12.9733 347.1666 14.60379872882906
TISAT 1                 
1 36799U 10035E   26129.09601135  .00018114  00000+0  62110-3 0  9995
2 36799  98.0693  72.2323 0003851  60.4732 299.6890 15.30241790861728
AEROCUBE 4.5A           
1 38767U 12048K   26129.21610869  .00141055  00000+0  84241-3 0  9996
2 38767  64.6302 167.1687 0019779 216.6446 143.3355 15.76955018366480
STRAND-1                
1 39090U 13009E   26129.06750503  .00000239  00000+0  94693-4 0  9998
2 39090  98.3918 310.2667 0008455 356.5478   3.5649 14.37140118691447
BRITE-AUSTRIA           
1 39091U 13009F   26129.06359985  .00000145  00000+0  63777-4 0  9993
2 39091  98.3988 309.4696 0010194   4.1993 355.9277 14.36526420691431
NEE-01 PEGASO           
1 39151U 13018B   26128.87230678  .00002615  00000+0  25424-3 0  9995
2 39151  98.1171 271.7412 0011320 295.5880  64.4168 14.93469024704839
POPACS 2                
1 39269U 13055E   26128.91061448  .00014703  00000+0  25226-3 0  9999
2 39269  80.9920 189.1231 0419805 320.1325  36.9726 14.90325554657365
POPACS 3                
1 39270U 13055F   26128.38759711  .00012939  00000+0  31052-3 0  9992
2 39270  81.0011 272.3074 0555040 191.0287 167.8332 14.55142260632760
ZACUBE-1 (TSHEPISOSAT)  
1 39417U 13066B   26129.14337313  .00004292  00000+0  33580-3 0  9993
2 39417  97.8125  91.2693 0042427  24.5721 335.7512 15.00886731674875
WNISAT-1                
1 39423U 13066H   26129.02553250  .00000426  00000+0  86303-4 0  9994
2 39423  97.7155 280.9727 0162997 355.7752   4.2061 14.58015045661021
TRITON-1                
1 39427U 13066M   26129.19303515  .00003159  00000+0  38181-3 0  9999
2 39427  97.8264  39.8887 0090535   2.5526 357.6131 14.81536367668312
GOMX-1                  
1 39430U 13066Q   26129.16579545  .00001409  00000+0  21822-3 0  9998
2 39430  97.6510 332.0883 0128201 202.2551 157.3062 14.69307964664185
CUBEBUG-2 (LO-74)       
1 39440U 13066AA  26129.13982661  .00003235  00000+0  30301-3 0  9994
2 39440  97.8886  77.9695 0058628 155.2950 205.1098 14.93475771671161
NEE-02 KRYSAOR          
1 39441U 13066AB  26129.10091603  .00001328  00000+0  15085-3 0  9992
2 39441  97.8876  68.6041 0065714 196.6639 163.2418 14.86475817670397
FUNCUBE-1 (AO-73)       
1 39444U 13066AE  26128.87274008  .00008007  00000+0  50333-3 0  9996
2 39444  97.8254  99.5196 0035903 340.3248  19.6593 15.08977950673734
UWE-3                   
1 39446U 13066AG  26128.84211439  .00003158  00000+0  27466-3 0  9997
2 39446  97.8687  84.6693 0051190  90.6298 270.0789 14.96703614671692
BRITE-CA1 (TORONTO)     
1 40020U 14033L   26129.10505492  .00000672  00000+0  10840-3 0  9993
2 40020  97.9683 258.7677 0079549  42.8510 317.8860 14.72623560636460
DUCHIFAT-1              
1 40021U 14033M   26129.10684207  .00070523  00000+0  93897-3 0  9991
2 40021  98.0510 183.0115 0005614 196.6222 163.4848 15.57905226649651
NANOSATC-BR1            
1 40024U 14033Q   26129.05055457  .00014814  00000+0  50892-3 0  9996
2 40024  98.0758 158.0066 0002231 346.5210  13.5969 15.30233592647995
QB50P1                  
1 40025U 14033R   26128.99344087  .00007418  00000+0  37179-3 0  9994
2 40025  98.0989 137.4101 0008788  12.5177 347.6271 15.17656520647080
QB50P2                  
1 40032U 14033Y   26128.93077324  .00006625  00000+0  36201-3 0  9997
2 40032  98.0760 123.3861 0006154 319.3738  40.7032 15.14660545646723
PERSEUS-M2              
1 40037U 14033AD  26129.12103525  .00000926  00000+0  89244-4 0  9991
2 40037  97.9940  78.8771 0013085  70.7735 289.4900 14.95386322644940
